{
    "links": {
        "self": "http://www.neowsapp.com/rest/v1/neo/3633184?api_key=iIulBulltgU6a56xZRHN4H3l9WmuAYTsLGpBGhQ2"
    },
    "id": "3633184",
    "neo_reference_id": "3633184",
    "name": "(2013 FT13)",
    "designation": "2013 FT13",
    "nasa_jpl_url": "http://ssd.jpl.nasa.gov/sbdb.cgi?sstr=3633184",
    "absolute_magnitude_h": 24.5,
    "estimated_diameter": {
        "kilometers": {
            "estimated_diameter_min": 0.0334622374,
            "estimated_diameter_max": 0.0748238376
        },
        "meters": {
            "estimated_diameter_min": 33.4622374455,
            "estimated_diameter_max": 74.8238376074
        },
        "miles": {
            "estimated_diameter_min": 0.0207924639,
            "estimated_diameter_max": 0.0464933628
        },
        "feet": {
            "estimated_diameter_min": 109.7842471007,
            "estimated_diameter_max": 245.4850393757
        }
    },
    "is_potentially_hazardous_asteroid": false,
    "close_approach_data": [
        {
            "close_approach_date": "1998-03-14",
            "close_approach_date_full": "1998-Mar-14 23:55",
            "epoch_date_close_approach": 889919700000,
            "relative_velocity": {
                "kilometers_per_second": "8.8310847794",
                "kilometers_per_hour": "31791.905205835",
                "miles_per_hour": "19754.2535430367"
            },
            "miss_distance": {
                "astronomical": "0.2330371713",
                "lunar": "90.6514596357",
                "kilometers": "34861864.457305131",
                "miles": "21662158.0861515678"
            },
            "orbiting_body": "Earth"
        },
        {
            "close_approach_date": "2013-03-25",
            "close_approach_date_full": "2013-Mar-25 14:40",
            "epoch_date_close_approach": 1364222400000,
            "relative_velocity": {
                "kilometers_per_second": "5.3807425866",
                "kilometers_per_hour": "19370.6733119025",
                "miles_per_hour": "12036.1830920541"
            },
            "miss_distance": {
                "astronomical": "0.0978566607",
                "lunar": "38.0662410123",
                "kilometers": "14639148.006032709",
                "miles": "9096344.7678370242"
            },
            "orbiting_body": "Earth"
        }
    ],
    "orbital_data": {
        "orbit_id": "9",
        "orbit_determination_date": "2017-04-06 08:46:19",
        "first_observation_date": "2013-03-23",
        "last_observation_date": "2013-04-22",
        "data_arc_in_days": 30,
        "observations_used": 31,
        "orbit_uncertainty": "7",
        "minimum_orbit_intersection": ".0973627",
        "jupiter_tisserand_invariant": "4.179",
        "epoch_osculation": "2459000.5",
        "eccentricity": ".3434945013626535",
        "semi_major_axis": "1.66435259159292",
        "inclination": "7.875473668858915",
        "ascending_node_longitude": "176.9434190257203",
        "orbital_period": "784.271497275715",
        "perihelion_distance": "1.09265662805207",
        "perihelion_argument": "10.5223729233002",
        "aphelion_distance": "2.23604855513377",
        "perihelion_time": "2458732.779432471312",
        "mean_anomaly": "122.8903570321196",
        "mean_motion": ".4590247143374637",
        "equinox": "J2000",
        "orbit_class": {
            "orbit_class_type": "AMO",
            "orbit_class_description": "Near-Earth asteroid orbits similar to that of 1221 Amor",
            "orbit_class_range": "1.017 AU < q (perihelion) < 1.3 AU"
        }
    },
    "is_sentry_object": false
}